OBJECT B                
1 51825U 22019B   24293.88302846  .00042947  00000+0  15939-2 0  9998
2 51825  97.4157   4.0257 0013887 156.4402 203.7476 15.27362301146227
